[
    {
        "Altitude(m)": 607895.8339427388,
        "Argument of Periapsis(deg)": 0.0,
        "Eccentricity": 0.0,
        "Inclination(deg)": 60.0,
        "Latitude(deg)": 40.99838444166809,
        "Longitude(deg)": 165.08873437613647,
        "Mean Anomaly(deg)": 130.90910000000005,
        "RAAN(deg)": 114.99999999999999,
        "Satellite Name": "Test1 514",
        "Satellite Number": 514,
        "Semi-Major Axis(m)": 6980739.136638005,
        "Time(s)": 0
    },
    {
        "Altitude(m)": 607795.1464165506,
        "Argument of Periapsis(deg)": 0.00010418945913296404,
        "Eccentricity": 0.0,
        "Inclination(deg)": 60.0,
        "Latitude(deg)": 40.530707811637,
        "Longitude(deg)": 165.58532708439677,
        "Mean Anomaly(deg)": 131.5292061454618,
        "RAAN(deg)": 114.99957995086024,
        "Satellite Name": "Test1 514",
        "Satellite Number": 514,
        "Semi-Major Axis(m)": 6980739.136638005,
        "Time(s)": 10
    }
]